ORBCOMM FM115           
1 41186U 15081H   25100.41414831  .00002019  00000+0  43005-3 0  9995
2 41186  46.9997   1.8533 0000179  84.1603 275.9305 14.62340573497854
ORBCOMM FM108           
1 41187U 15081J   25100.26405934  .00001585  00000+0  37846-3 0  9996
2 41187  47.0049  67.7066 0003065 345.6088  14.4710 14.57977471496881
ORBCOMM FM117           
1 41188U 15081K   25100.84714141  .00001705  00000+0  40415-3 0  9994
2 41188  47.0012  63.7390 0003383 357.2836   2.8031 14.57986932497061
ORBCOMM FM116           
1 41189U 15081L   25100.63280095  .00001917  00000+0  44949-3 0  9999
2 41189  47.0002 154.6220 0000288  95.7207 264.3711 14.58015590495860
